NORAD_CAT_ID,OBJECT_NAME,OBJECT_TYPE,EPOCH,MEAN_MOTION,ECCENTRICITY,INCLINATION,RA_OF_ASC_NODE,ARG_OF_PERICENTER,MEAN_ANOMALY,BSTAR,MEAN_MOTION_DOT,MEAN_MOTION_DDOT,TLE_LINE0,TLE_LINE1,TLE_LINE2,SEMIMAJOR_AXIS,PERIOD,APOGEE,PERIGEE,DECAYED
54202.0,STARLINK-5205,PAYLOAD,2024-07-26 04:11:34,15.08844962,0.0001309,53.2167,129.2197,116.1839,243.9288,0.00017607,2.516e-05,0.0,0 STARLINK-5205,1 54202U 22141AX  24208.17471036  .00002516  00000-0  17607-3 0  9996,2 54202  53.2167 129.2197 0001309 116.1839 243.9288 15.08844962 96932,6917.865,95.437,540.636,538.825,0.0
54202.0,STARLINK-5205,PAYLOAD,2024-07-26 12:08:30,15.08843749,0.0001205,53.2153,127.7347,105.8461,254.2664,0.00016473,2.335e-05,0.0,0 STARLINK-5205,1 54202U 22141AX  24208.50591186  .00002335  00000-0  16473-3 0  9991,2 54202  53.2153 127.7347 0001205 105.8461 254.2664 15.08843749 96753,6917.869,95.437,540.568,538.9,0.0
54202.0,STARLINK-5205,PAYLOAD,2024-07-26 23:16:12,15.08855183,0.0001198,53.2155,125.6519,101.2613,258.8514,0.00016445,2.331e-05,0.0,0 STARLINK-5205,1 54202U 22141AX  24208.96958484  .00002331  00000-0  16445-3 0  9994,2 54202  53.2155 125.6519 0001198 101.2613 258.8514 15.08855183 96820,6917.834,95.437,540.528,538.87,0.0
54202.0,STARLINK-5205,PAYLOAD,2024-07-27 21:31:37,15.08834956,0.000107,53.2175,121.4936,66.676,293.4345,6.291e-05,7.13e-06,0.0,0 STARLINK-5205,1 54202U 22141AX  24209.89695677  .00000713  00000-0  62910-4 0  9990,2 54202  53.2175 121.4936 0001070  66.6760 293.4345 15.08834956 96962,6917.896,95.438,540.501,539.021,0.0
54202.0,STARLINK-5205,PAYLOAD,2024-07-28 00:42:23,15.08833225,8.42e-05,53.2163,120.8983,67.8563,292.2519,3.9839e-05,3.46e-06,0.0,0 STARLINK-5205,1 54202U 22141AX  24210.02943686  .00000346  00000-0  39839-4 0  9999,2 54202  53.2163 120.8983 0000842  67.8563 292.2519 15.08833225 97211,6917.901,95.438,540.349,539.184,0.0
54202.0,STARLINK-5205,PAYLOAD,2024-07-28 21:22:28,15.08709426,0.0001187,53.216,117.0318,125.6628,234.4475,0.0018715,0.00029516,0.0,0 STARLINK-5205,1 54202U 22141AX  24210.89060228  .00029516  00000-0  18715-2 0  9994,2 54202  53.2160 117.0318 0001187 125.6628 234.4475 15.08709426 97344,6918.28,95.446,540.966,539.323,0.0
54202.0,STARLINK-5205,PAYLOAD,2024-07-28 22:57:47,15.08842386,0.000147,53.2158,116.7311,91.5994,268.5167,-3.9147e-05,-9.11e-06,0.0,0 STARLINK-5205,1 54202U 22141AX  24210.95679611 -.00000911  00000-0 -39147-4 0  9997,2 54202  53.2158 116.7311 0001470  91.5994 268.5167 15.08842386 97127,6917.873,95.437,540.755,538.721,0.0
54202.0,STARLINK-5205,PAYLOAD,2024-07-29 05:19:19,15.0884571,0.0001545,53.2166,115.5447,89.7303,270.3866,0.00014961,2.094e-05,0.0,0 STARLINK-5205,1 54202U 22141AX  24211.22174938  .00002094  00000-0  14961-3 0  9998,2 54202  53.2166 115.5447 0001545  89.7303 270.3866 15.08845710 97399,6917.863,95.437,540.797,538.659,0.0
54202.0,STARLINK-5205,PAYLOAD,2024-07-29 21:13:11,15.08838079,0.0001609,53.2169,112.5701,92.3322,267.7854,0.0001311,1.799e-05,0.0,0 STARLINK-5205,1 54202U 22141AX  24211.88415583  .00001799  00000-0  13110-3 0  9990,2 54202  53.2169 112.5701 0001609  92.3322 267.7854 15.08838079 97492,6917.886,95.438,540.864,538.638,0.0
54202.0,STARLINK-5205,PAYLOAD,2024-07-29 22:48:34,15.08840022,0.0001669,53.2168,112.2729,92.8277,267.2906,0.00014555,2.029e-05,0.0,0 STARLINK-5205,1 54202U 22141AX  24211.95039446  .00002029  00000-0  14555-3 0  9999,2 54202  53.2168 112.2729 0001669  92.8277 267.2906 15.08840022 97278,6917.88,95.438,540.9,538.591,0.0
54202.0,STARLINK-5205,PAYLOAD,2024-07-30 00:23:56,15.08847259,0.0001644,53.2169,111.9763,95.9315,264.1865,0.00020568,2.988e-05,0.0,0 STARLINK-5205,1 54202U 22141AX  24212.01662860  .00002988  00000-0  20568-3 0  9994,2 54202  53.2169 111.9763 0001644  95.9315 264.1865 15.08847259 97519,6917.858,95.437,540.86,538.586,0.0
54202.0,STARLINK-5205,PAYLOAD,2024-07-30 16:17:48,15.0884317,0.0001706,53.2188,109.0058,96.2855,263.8331,0.00012886,1.764e-05,0.0,0 STARLINK-5205,1 54202U 22141AX  24212.67903343  .00001764  00000-0  12886-3 0  9995,2 54202  53.2188 109.0058 0001706  96.2855 263.8331 15.08843170 97610,6917.871,95.437,540.916,538.556,0.0
54202.0,STARLINK-5205,PAYLOAD,2024-07-31 09:47:03,15.08837333,0.000169,53.2178,105.7334,97.8022,262.3162,-2.4928e-05,-6.85e-06,0.0,0 STARLINK-5205,1 54202U 22141AX  24213.40768087 -.00000685  00000-0 -24928-4 0  9995,2 54202  53.2178 105.7334 0001690  97.8022 262.3162 15.08837333 97726,6917.889,95.438,540.923,538.584,0.0
54202.0,STARLINK-5205,PAYLOAD,2024-07-31 22:30:09,15.0883531,0.0001657,53.2179,103.3535,101.4969,258.6209,-8.5309e-05,-1.645e-05,0.0,0 STARLINK-5205,1 54202U 22141AX  24213.93760497 -.00001645  00000-0 -85309-4 0  9997,2 54202  53.2179 103.3535 0001657 101.4969 258.6209 15.08835310 97575,6917.895,95.438,540.906,538.613,0.0
54202.0,STARLINK-5205,PAYLOAD,2024-08-01 00:05:31,15.08839177,0.0001552,53.2182,103.0534,98.8314,261.2854,-5.2055e-05,-1.116e-05,0.0,0 STARLINK-5205,1 54202U 22141AX  24214.00384110 -.00001116  00000-0 -52055-4 0  9995,2 54202  53.2182 103.0534 0001552  98.8314 261.2854 15.08839177 97584,6917.883,95.438,540.822,538.674,0.0
54202.0,STARLINK-5205,PAYLOAD,2024-08-01 20:45:31,15.08848249,0.0001432,53.2183,99.1906,108.8016,251.3131,9.7295e-05,1.261e-05,0.0,0 STARLINK-5205,1 54202U 22141AX  24214.86494961  .00001261  00000-0  97295-4 0  9999,2 54202  53.2183  99.1906 0001432 108.8016 251.3131 15.08848249 97949,6917.855,95.437,540.711,538.73,0.0
54202.0,STARLINK-5205,PAYLOAD,2024-08-01 22:20:54,15.08853533,0.0001275,53.2182,98.8885,111.5285,248.5843,7.9407e-05,9.77e-06,0.0,0 STARLINK-5205,1 54202U 22141AX  24214.93118630  .00000977  00000-0  79407-4 0  9991,2 54202  53.2182  98.8885 0001275 111.5285 248.5843 15.08853533 97720,6917.839,95.437,540.586,538.822,0.0
54202.0,STARLINK-5205,PAYLOAD,2024-08-02 09:28:37,15.08837917,0.0001451,53.2161,96.8127,88.6356,271.4802,9.9078e-05,1.289e-05,0.0,0 STARLINK-5205,1 54202U 22141AX  24215.39487695  .00001289  00000-0  99078-4 0  9995,2 54202  53.2161  96.8127 0001451  88.6356 271.4802 15.08837917 98025,6917.887,95.438,540.756,538.748,0.0
54202.0,STARLINK-5205,PAYLOAD,2024-08-02 20:36:20,15.08826579,0.0001643,53.2154,94.7273,92.3438,267.7742,6.0912e-05,6.81e-06,0.0,0 STARLINK-5205,1 54202U 22141AX  24215.85856819  .00000681  00000-0  60912-4 0  9994,2 54202  53.2154  94.7273 0001643  92.3438 267.7742 15.08826579 98092,6917.921,95.438,540.923,538.65,0.0
54202.0,STARLINK-5205,PAYLOAD,2024-08-02 22:11:43,15.08831459,0.0001372,53.2173,94.4312,97.3574,262.7574,-2.5724e-05,-6.97e-06,0.0,0 STARLINK-5205,1 54202U 22141AX  24215.92480789 -.00000697  00000-0 -25724-4 0  9992,2 54202  53.2173  94.4312 0001372  97.3574 262.7574 15.08831459 97875,6917.906,95.438,540.721,538.822,0.0
54202.0,STARLINK-5205,PAYLOAD,2024-08-03 09:19:24,15.08843289,0.0001348,53.2173,92.3494,98.7431,261.3714,5.7779e-05,6.32e-06,0.0,0 STARLINK-5205,1 54202U 22141AX  24216.38847890  .00000632  00000-0  57779-4 0  9995,2 54202  53.2173  92.3494 0001348  98.7431 261.3714 15.08843289 98172,6917.87,95.437,540.668,538.803,0.0
54202.0,STARLINK-5205,PAYLOAD,2024-08-03 22:02:28,15.08856104,0.0001133,53.2165,89.9677,111.9896,248.1217,8.6508e-06,-1.5e-06,0.0,0 STARLINK-5205,1 54202U 22141AX  24216.91839028 -.00000150  00000-0  86508-5 0  9997,2 54202  53.2165  89.9677 0001133 111.9896 248.1217 15.08856104 98028,6917.831,95.437,540.48,538.912,0.0
54202.0,STARLINK-5205,PAYLOAD,2024-08-04 01:13:14,15.08864211,0.0001251,53.2168,89.3734,108.8955,251.2173,8.8756e-05,1.126e-05,0.0,0 STARLINK-5205,1 54202U 22141AX  24217.05086260  .00001126  00000-0  88756-4 0  9994,2 54202  53.2168  89.3734 0001251 108.8955 251.2173 15.08864211 98272,6917.806,95.436,540.537,538.806,0.0
54202.0,STARLINK-5205,PAYLOAD,2024-08-04 20:17:53,15.08849982,0.0001511,53.2167,85.8088,85.807,274.3094,0.00037565,5.697e-05,0.0,0 STARLINK-5205,1 54202U 22141AX  24217.84575907  .00005697  00000-0  37565-3 0  9990,2 54202  53.2167  85.8088 0001511  85.8070 274.3094 15.08849982 98394,6917.85,95.437,540.76,538.67,0.0
54202.0,STARLINK-5205,PAYLOAD,2024-08-04 21:53:16,15.08860857,0.0001372,53.2162,85.509,84.0149,276.0999,0.0005645,8.713e-05,0.0,0 STARLINK-5205,1 54202U 22141AX  24217.91199515  .00008713  00000-0  56450-3 0  9991,2 54202  53.2162  85.5090 0001372  84.0149 276.0999 15.08860857 98175,6917.817,95.436,540.631,538.733,0.0
54202.0,STARLINK-5205,PAYLOAD,2024-08-05 21:44:03,15.08842306,0.0001479,53.2172,81.05,97.5337,262.5823,8.891e-05,1.127e-05,0.0,0 STARLINK-5205,1 54202U 22141AX  24218.90559937  .00001127  00000-0  88910-4 0  9998,2 54202  53.2172  81.0500 0001479  97.5337 262.5823 15.08842306 98556,6917.873,95.437,540.761,538.715,0.0
54202.0,STARLINK-5205,PAYLOAD,2024-08-06 07:16:22,15.08839154,0.0001316,53.2161,79.2621,92.4243,267.69,3.6368e-05,2.91e-06,0.0,0 STARLINK-5205,1 54202U 22141AX  24219.30303950  .00000291  00000-0  36368-4 0  9996,2 54202  53.2161  79.2621 0001316  92.4243 267.6900 15.08839154 98387,6917.883,95.438,540.658,538.838,0.0
54202.0,STARLINK-5205,PAYLOAD,2024-08-06 19:59:28,15.08835106,0.0001434,53.2175,76.8865,83.0027,277.1128,-3.85e-05,-9.01e-06,0.0,0 STARLINK-5205,1 54202U 22141AX  24219.83296474 -.00000901  00000-0 -38500-4 0  9996,2 54202  53.2175  76.8865 0001434  83.0027 277.1128 15.08835106 98697,6917.895,95.438,540.752,538.768,0.0
54202.0,STARLINK-5205,PAYLOAD,2024-08-07 13:28:42,15.08840538,0.0001398,53.2177,73.6155,101.3555,258.7594,0.00025362,3.751e-05,0.0,0 STARLINK-5205,1 54202U 22141AX  24220.56160404  .00003751  00000-0  25362-3 0  9996,2 54202  53.2177  73.6155 0001398 101.3555 258.7594 15.08840538 98579,6917.879,95.438,540.711,538.777,0.0
54202.0,STARLINK-5205,PAYLOAD,2024-08-07 19:50:14,15.08848782,0.0001378,53.217,72.4267,102.3016,257.813,0.00029833,4.464e-05,0.0,0 STARLINK-5205,1 54202U 22141AX  24220.82656093  .00004464  00000-0  29833-3 0  9998,2 54202  53.2170  72.4267 0001378 102.3016 257.8130 15.08848782 98849,6917.854,95.437,540.672,538.765,0.0
